COMMENT,ORIGINATOR,NORAD_CAT_ID,OBJECT_NAME,OBJECT_TYPE,CLASSIFICATION_TYPE,INTLDES,EPOCH,EPOCH_MICROSECONDS,MEAN_MOTION,ECCENTRICITY,INCLINATION,RA_OF_ASC_NODE,ARG_OF_PERICENTER,MEAN_ANOMALY,EPHEMERIS_TYPE,ELEMENT_SET_NO,REV_AT_EPOCH,BSTAR,MEAN_MOTION_DOT,MEAN_MOTION_DDOT,FILE,TLE_LINE0,TLE_LINE1,TLE_LINE2,OBJECT_ID,OBJECT_NUMBER,SEMIMAJOR_AXIS,PERIOD,APOGEE,PERIGEE,DECAYED
"GENERATED VIA SPACETRACK.ORG API","18 SPCS","55094","SPACEBEE-165","PAYLOAD","U","23001CP","2023-05-19 09:58:09","162912","15.19074339","0.0015898","97.4785","199.7871","104.5818","255.7181","0","999","2073","0.00059327","0.00012424","0","3912278","0 SPACEBEE-165","1 55094U 23001CP  23139.41538383  .00012424  00000-0  59327-3 0  9994","2 55094  97.4785 199.7871 0015898 104.5818 255.7181 15.19074339 20738","2023-001CP","55094","6886.774","94.795","519.587","497.690","0"
"GENERATED VIA SPACETRACK.ORG API","18 SPCS","55094","SPACEBEE-165","PAYLOAD","U","23001CP","2023-05-20 09:40:57","733536","15.19111457","0.0015841","97.478","200.7653","101.3356","258.9659","0","999","2088","0.00093068","0.00019568","0","3912858","0 SPACEBEE-165","1 55094U 23001CP  23140.40344599  .00019568  00000-0  93068-3 0  9995","2 55094  97.4780 200.7653 0015841 101.3356 258.9659 15.19111457 20888","2023-001CP","55094","6886.662","94.792","519.436","497.618","0"
"GENERATED VIA SPACETRACK.ORG API","18 SPCS","55094","SPACEBEE-165","PAYLOAD","U","23001CP","2023-05-20 16:00:22","288896","15.19124501","0.0015777","97.4777","201.026","100.6011","259.7001","0","999","2092","0.001045","0.00021995","0","3913175","0 SPACEBEE-165","1 55094U 23001CP  23140.66692464  .00021995  00000-0  10450-2 0  9990","2 55094  97.4777 201.0260 0015777 100.6011 259.7001 15.19124501 20929","2023-001CP","55094","6886.622","94.791","519.352","497.622","0"
"GENERATED VIA SPACETRACK.ORG API","18 SPCS","55094","SPACEBEE-165","PAYLOAD","U","23001CP","2023-05-21 03:04:19","782336","15.19144706","0.0015753","97.4777","201.4824","99.1835","261.1182","0","999","2099","0.0010215","0.0002151","0","3913738","0 SPACEBEE-165","1 55094U 23001CP  23141.12800674  .00021510  00000-0  10215-2 0  9998","2 55094  97.4777 201.4824 0015753  99.1835 261.1182 15.19144706 20992","2023-001CP","55094","6886.561","94.790","519.275","497.578","0"
"GENERATED VIA SPACETRACK.ORG API","18 SPCS","55094","SPACEBEE-165","PAYLOAD","U","23001CP","2023-05-21 15:43:07","785408","15.19164073","0.0015682","97.4777","202.0042","97.5214","262.7803","0","999","2107","0.00088239","0.00018574","0","3914041","0 SPACEBEE-165","1 55094U 23001CP  23141.65495122  .00018574  00000-0  88239-3 0  9992","2 55094  97.4777 202.0042 0015682  97.5214 262.7803 15.19164073 21071","2023-001CP","55094","6886.503","94.789","519.167","497.568","0"
"GENERATED VIA SPACETRACK.ORG API","18 SPCS","55094","SPACEBEE-165","PAYLOAD","U","23001CP","2023-05-21 17:17:58","727904","15.19168114","0.0015674","97.4777","202.0695","97.3353","262.9664","0","999","2108","0.00093072","0.000196","0","3914061","0 SPACEBEE-165","1 55094U 23001CP  23141.72081861  .00019600  00000-0  93072-3 0  9993","2 55094  97.4777 202.0695 0015674  97.3353 262.9664 15.19168114 21086","2023-001CP","55094","6886.490","94.789","519.149","497.562","0"
"GENERATED VIA SPACETRACK.ORG API","18 SPCS","55094","SPACEBEE-165","PAYLOAD","U","23001CP","2023-05-22 02:47:04","305984","15.19186555","0.0015704","97.4776","202.4609","95.7544","264.5481","0","999","2114","0.0010613","0.0002238","0","3914693","0 SPACEBEE-165","1 55094U 23001CP  23142.11602206  .00022380  00000-0  10613-2 0  9997","2 55094  97.4776 202.4609 0015704  95.7544 264.5481 15.19186555 21143","2023-001CP","55094","6886.435","94.788","519.114","497.485","0"
"GENERATED VIA SPACETRACK.ORG API","18 SPCS","55094","SPACEBEE-165","PAYLOAD","U","23001CP","2023-05-22 21:45:14","388192","15.1921228","0.0015722","97.4777","203.2433","93.1975","267.1059","0","999","2126","0.00088808","0.00018721","0","3914964","0 SPACEBEE-165","1 55094U 23001CP  23142.90641653  .00018721  00000-0  88808-3 0  9999","2 55094  97.4777 203.2433 0015722  93.1975 267.1059 15.19212280 21266","2023-001CP","55094","6886.357","94.786","519.049","497.395","0"
"GENERATED VIA SPACETRACK.ORG API","18 SPCS","55094","SPACEBEE-165","PAYLOAD","U","23001CP","2023-05-23 02:29:46","688640","15.19220554","0.0015743","97.4777","203.4389","92.5998","267.7039","0","999","2129","0.00089637","0.00018902","0","3915235","0 SPACEBEE-165","1 55094U 23001CP  23143.10401260  .00018902  00000-0  89637-3 0  9992","2 55094  97.4777 203.4389 0015743  92.5998 267.7039 15.19220554 21299","2023-001CP","55094","6886.332","94.785","519.038","497.356","0"
"GENERATED VIA SPACETRACK.ORG API","18 SPCS","55094","SPACEBEE-165","PAYLOAD","U","23001CP","2023-05-23 21:27:55","188000","15.19244453","0.0015766","97.4774","204.2216","90.1944","270.1097","0","999","2141","0.00074189","0.00015636","0","3915766","0 SPACEBEE-165","1 55094U 23001CP  23143.89438875  .00015636  00000-0  74189-3 0  9997","2 55094  97.4774 204.2216 0015766  90.1944 270.1097 15.19244453 21414","2023-001CP","55094","6886.260","94.784","518.982","497.268","0"
"GENERATED VIA SPACETRACK.ORG API","18 SPCS","55094","SPACEBEE-165","PAYLOAD","U","23001CP","2023-05-24 03:47:17","725056","15.19255585","0.0015748","97.4774","204.4826","89.4417","270.8622","0","999","2145","0.0008028","0.00016934","0","3916310","0 SPACEBEE-165","1 55094U 23001CP  23144.15784404  .00016934  00000-0  80280-3 0  9990","2 55094  97.4774 204.4826 0015748  89.4417 270.8622 15.19255585 21452","2023-001CP","55094","6886.226","94.783","518.936","497.247","0"
"GENERATED VIA SPACETRACK.ORG API","18 SPCS","55094","SPACEBEE-165","PAYLOAD","U","23001CP","2023-05-24 14:51:11","957760","15.19267541","0.0015711","97.4772","204.9392","88.0243","272.2791","0","999","2152","0.00071923","0.00015166","0","3916549","0 SPACEBEE-165","1 55094U 23001CP  23144.61888840  .00015166  00000-0  71923-3 0  9990","2 55094  97.4772 204.9392 0015711  88.0243 272.2791 15.19267541 21521","2023-001CP","55094","6886.190","94.783","518.874","497.236","0"
"GENERATED VIA SPACETRACK.ORG API","18 SPCS","55094","SPACEBEE-165","PAYLOAD","U","23001CP","2023-05-25 17:43:30","673344","15.19301845","0.0015566","97.4771","206.048","84.6385","275.6625","0","999","2169","0.00074723","0.00015775","0","3917108","0 SPACEBEE-165","1 55094U 23001CP  23145.73854946  .00015775  00000-0  74723-3 0  9991","2 55094  97.4771 206.0480 0015566  84.6385 275.6625 15.19301845 21695","2023-001CP","55094","6886.086","94.780","518.670","497.232","0"
"GENERATED VIA SPACETRACK.ORG API","18 SPCS","55094","SPACEBEE-165","PAYLOAD","U","23001CP","2023-05-25 17:43:30","673344","15.19301845","0.0015566","97.4771","206.048","84.6385","275.6625","0","999","2169","0.00074723","0.00015775","0","3917122","0 SPACEBEE-165","1 55094U 23001CP  23145.73854946  .00015775  00000-0  74723-3 0  9991","2 55094  97.4771 206.0480 0015566  84.6385 275.6625 15.19301845 21695","2023-001CP","55094","6886.086","94.780","518.670","497.232","0"
"GENERATED VIA SPACETRACK.ORG API","18 SPCS","55094","SPACEBEE-165","PAYLOAD","U","23001CP","2023-05-26 03:12:33","278400","15.19311925","0.0015523","97.4771","206.4392","83.3584","276.9417","0","999","2175","0.0006884","0.00014529","0","3917630","0 SPACEBEE-165","1 55094U 23001CP  23146.13371850  .00014529  00000-0  68840-3 0  9993","2 55094  97.4771 206.4392 0015523  83.3584 276.9417 15.19311925 21751","2023-001CP","55094","6886.056","94.780","518.610","497.232","0"
"GENERATED VIA SPACETRACK.ORG API","18 SPCS","55094","SPACEBEE-165","PAYLOAD","U","23001CP","2023-05-26 17:26:06","692640","15.1932803","0.0015434","97.4771","207.0262","81.4663","278.832","0","999","2184","0.00066374","0.00014011","0","3917850","0 SPACEBEE-165","1 55094U 23001CP  23146.72646635  .00014011  00000-0  66374-3 0  9990","2 55094  97.4771 207.0262 0015434  81.4663 278.8320 15.19328030 21841","2023-001CP","55094","6886.007","94.779","518.500","497.244","0"
"GENERATED VIA SPACETRACK.ORG API","18 SPCS","55094","SPACEBEE-165","PAYLOAD","U","23001CP","2023-05-27 02:55:08","700672","15.19337985","0.0015425","97.4772","207.4175","80.1949","280.1027","0","999","2190","0.00063866","0.00013482","0","3918179","0 SPACEBEE-165","1 55094U 23001CP  23147.12162848  .00013482  00000-0  63866-3 0  9998","2 55094  97.4772 207.4175 0015425  80.1949 280.1027 15.19337985 21908","2023-001CP","55094","6885.977","94.778","518.464","497.221","0"
"GENERATED VIA SPACETRACK.ORG API","18 SPCS","55094","SPACEBEE-165","PAYLOAD","U","23001CP","2023-05-27 21:53:11","993568","15.19357505","0.0015424","97.4776","208.2004","77.7714","282.5247","0","999","2202","0.00059225","0.00012503","0","3918755","0 SPACEBEE-165","1 55094U 23001CP  23147.91194437  .00012503  00000-0  59225-3 0  9991","2 55094  97.4776 208.2004 0015424  77.7714 282.5247 15.19357505 22027","2023-001CP","55094","6885.918","94.777","518.404","497.162","0"
"GENERATED VIA SPACETRACK.ORG API","18 SPCS","55094","SPACEBEE-165","PAYLOAD","U","23001CP","2023-05-28 02:37:42","672288","15.19362944","0.0015399","97.4777","208.3961","77.0503","283.2451","0","999","2205","0.00059241","0.00012508","0","3919252","0 SPACEBEE-165","1 55094U 23001CP  23148.10952167  .00012508  00000-0  59241-3 0  9998","2 55094  97.4777 208.3961 0015399  77.0503 283.2451 15.19362944 22052","2023-001CP","55094","6885.902","94.777","518.370","497.163","0"
"GENERATED VIA SPACETRACK.ORG API","18 SPCS","55094","SPACEBEE-165","PAYLOAD","U","23001CP","2023-05-28 16:51:14","271264","15.19383229","0.0015416","97.4777","208.983","75.2907","285.0035","0","999","2214","0.00072953","0.00015434","0","3919536","0 SPACEBEE-165","1 55094U 23001CP  23148.70224851  .00015434  00000-0  72953-3 0  9992","2 55094  97.4777 208.9830 0015416  75.2907 285.0035 15.19383229 22148","2023-001CP","55094","6885.840","94.775","518.321","497.090","0"
